start=new Date('2021-12-27T00:00:00.000Z').valueOf();
sats=[{"SEMIMAJOR_AXIS":"6925.336","MEAN_MOTION_DOT":"0.00003400","OBJECT_TYPE":"PAYLOAD","TLE_LINE2":"2 45080  53.0544 312.3293 0001794  55.5832 304.5327 15.06404193105555","NORAD_CAT_ID":"45080","GP_ID":"192522076","RA_OF_ASC_NODE":"312.3293","CENTER_NAME":"EARTH","BSTAR":"0.00024701000000","REF_FRAME":"TEME","MEAN_MOTION":"15.06404193","OBJECT_NAME":"STARLINK-1153","PERIAPSIS":"545.958","MEAN_MOTION_DDOT":"0.0000000000000","RCS_SIZE":"LARGE","INCLINATION":"53.0544","APOAPSIS":"548.443","SITE":"AFETR","MEAN_ANOMALY":"304.5327","COUNTRY_CODE":"US","CLASSIFICATION_TYPE":"U","TLE_LINE1":"1 45080U 20006AN  21360.84185210  .00003400  00000-0  24701-3 0  9990","FILE":"3251846","MEAN_ELEMENT_THEORY":"SGP4","TIME_SYSTEM":"UTC","ELEMENT_SET_NO":"999","EPOCH":"2021-12-26T20:12:16.021440","EPHEMERIS_TYPE":"0","REV_AT_EPOCH":"10555","ARG_OF_PERICENTER":"55.5832","DECAY_DATE":null,"ECCENTRICITY":"0.00017940","OBJECT_ID":"2020-006AN","LAUNCH_DATE":"2020-01-29","PERIOD":"95.592"},{"BSTAR":"0.00005963300000","CENTER_NAME":"EARTH","REF_FRAME":"TEME","OBJECT_NAME":"STARLINK-1151","MEAN_MOTION":"15.06397215","PERIAPSIS":"545.937","SEMIMAJOR_AXIS":"6925.357","MEAN_MOTION_DOT":"0.00000607","OBJECT_TYPE":"PAYLOAD","TLE_LINE2":"2 45081  53.0562 312.1433 0001856  56.4252 303.6914 15.06397215105564","NORAD_CAT_ID":"45081","GP_ID":"192522827","RA_OF_ASC_NODE":"312.1433","ARG_OF_PERICENTER":"56.4252","DECAY_DATE":null,"ECCENTRICITY":"0.00018560","OBJECT_ID":"2020-006AP","LAUNCH_DATE":"2020-01-29","PERIOD":"95.592","MEAN_MOTION_DDOT":"0.0000000000000","INCLINATION":"53.0562","RCS_SIZE":"LARGE","APOAPSIS":"548.507","SITE":"AFETR","MEAN_ANOMALY":"303.6914","COUNTRY_CODE":"US","TLE_LINE1":"1 45081U 20006AP  21360.88608231  .00000607  00000-0  59633-4 0  9997","MEAN_ELEMENT_THEORY":"SGP4","FILE":"3251846","CLASSIFICATION_TYPE":"U","TIME_SYSTEM":"UTC","ELEMENT_SET_NO":"999","EPOCH":"2021-12-26T21:15:57.511584","EPHEMERIS_TYPE":"0","REV_AT_EPOCH":"10556"},{"LAUNCH_DATE":"2020-01-29","PERIOD":"95.592","DECAY_DATE":null,"ARG_OF_PERICENTER":"57.6113","ECCENTRICITY":"0.00018890","OBJECT_ID":"2020-006AQ","COUNTRY_CODE":"US","TIME_SYSTEM":"UTC","CLASSIFICATION_TYPE":"U","TLE_LINE1":"1 45082U 20006AQ  21360.87502948  .00004439  00000-0  31670-3 0  9992","FILE":"3251846","MEAN_ELEMENT_THEORY":"SGP4","EPHEMERIS_TYPE":"0","EPOCH":"2021-12-26T21:00:02.547072","ELEMENT_SET_NO":"999","REV_AT_EPOCH":"10555","INCLINATION":"53.0531","RCS_SIZE":"LARGE","MEAN_MOTION_DDOT":"0.0000000000000","SITE":"AFETR","APOAPSIS":"548.522","MEAN_ANOMALY":"302.5059","OBJECT_NAME":"STARLINK-1160","MEAN_MOTION":"15.06399779","PERIAPSIS":"545.906","BSTAR":"0.00031670000000","CENTER_NAME":"EARTH","REF_FRAME":"TEME","NORAD_CAT_ID":"45082","GP_ID":"192523078","RA_OF_ASC_NODE":"312.1754","SEMIMAJOR_AXIS":"6925.349","OBJECT_TYPE":"PAYLOAD","MEAN_MOTION_DOT":"0.00004439","TLE_LINE2":"2 45082  53.0531 312.1754 0001889  57.6113 302.5059 15.06399779105556"},{"OBJECT_ID":"2020-006AR","ECCENTRICITY":"0.00015770","DECAY_DATE":null,"ARG_OF_PERICENTER":"54.2107","PERIOD":"95.594","LAUNCH_DATE":"2020-01-29","MEAN_ANOMALY":"305.9029","SITE":"AFETR","APOAPSIS":"548.377","INCLINATION":"53.0551","RCS_SIZE":"LARGE","MEAN_MOTION_DDOT":"0.0000000000000","REV_AT_EPOCH":"10521","EPHEMERIS_TYPE":"0","EPOCH":"2021-12-26T10:36:20.498688","ELEMENT_SET_NO":"999","TIME_SYSTEM":"UTC","TLE_LINE1":"1 45083U 20006AR  21360.44190392 -.00012082  00000-0 -79407-3 0  9997","FILE":"3251546","MEAN_ELEMENT_THEORY":"SGP4","CLASSIFICATION_TYPE":"U","COUNTRY_CODE":"US","REF_FRAME":"TEME","BSTAR":"-0.00079407000000","CENTER_NAME":"EARTH","PERIAPSIS":"546.193","MEAN_MOTION":"15.06376789","OBJECT_NAME":"STARLINK-1190","TLE_LINE2":"2 45083  53.0551 334.1323 0001577  54.2107 305.9029 15.06376789105218","OBJECT_TYPE":"PAYLOAD","MEAN_MOTION_DOT":"-0.00012082","SEMIMAJOR_AXIS":"6925.420","RA_OF_ASC_NODE":"334.1323","GP_ID":"192492669","NORAD_CAT_ID":"45083"},{"EPOCH":"2021-12-26T22:54:09.499104","EPHEMERIS_TYPE":"0","ELEMENT_SET_NO":"999","REV_AT_EPOCH":"10585","COUNTRY_CODE":"US","TIME_SYSTEM":"UTC","TLE_LINE1":"1 45084U 20006AS  21360.95427661  .00000820  00000-0  73956-4 0  9995","MEAN_ELEMENT_THEORY":"SGP4","FILE":"3251846","CLASSIFICATION_TYPE":"U","SITE":"AFETR","APOAPSIS":"548.487","MEAN_ANOMALY":"306.6934","INCLINATION":"53.0555","RCS_SIZE":"LARGE","MEAN_MOTION_DDOT":"0.0000000000000","PERIOD":"95.593","LAUNCH_DATE":"2020-01-29","ECCENTRICITY":"0.00017850","OBJECT_ID":"2020-006AS","DECAY_DATE":null,"ARG_OF_PERICENTER":"53.4219","GP_ID":"192522577","RA_OF_ASC_NODE":"291.8257","NORAD_CAT_ID":"45084","OBJECT_TYPE":"PAYLOAD","MEAN_MOTION_DOT":"0.00000820","TLE_LINE2":"2 45084  53.0555 291.8257 0001785  53.4219 306.6934 15.06387728105852","SEMIMAJOR_AXIS":"6925.386","OBJECT_NAME":"STARLINK-1173","MEAN_MOTION":"15.06387728","PERIAPSIS":"546.015","REF_FRAME":"TEME","BSTAR":"0.00007395600000","CENTER_NAME":"EARTH"},{"SEMIMAJOR_AXIS":"6925.361","TLE_LINE2":"2 45085  53.0537 295.1085 0001878  55.0386 305.0779 15.06395879105749","MEAN_MOTION_DOT":"0.00003250","OBJECT_TYPE":"PAYLOAD","NORAD_CAT_ID":"45085","RA_OF_ASC_NODE":"295.1085","GP_ID":"192493669","CENTER_NAME":"EARTH","BSTAR":"0.00023704000000","REF_FRAME":"TEME","PERIAPSIS":"545.926","MEAN_MOTION":"15.06395879","OBJECT_NAME":"STARLINK-1179","MEAN_MOTION_DDOT":"0.0000000000000","INCLINATION":"53.0537","RCS_SIZE":"LARGE","MEAN_ANOMALY":"305.0779","APOAPSIS":"548.527","SITE":"AFETR","TLE_LINE1":"1 45085U 20006AT  21360.22078086  .00003250  00000-0  23704-3 0  9994","CLASSIFICATION_TYPE":"U","FILE":"3251546","MEAN_ELEMENT_THEORY":"SGP4","TIME_SYSTEM":"UTC","COUNTRY_CODE":"US","REV_AT_EPOCH":"10574","ELEMENT_SET_NO":"999","EPOCH":"2021-12-26T05:17:55.466304","EPHEMERIS_TYPE":"0","ARG_OF_PERICENTER":"55.0386","DECAY_DATE":null,"OBJECT_ID":"2020-006AT","ECCENTRICITY":"0.00018780","LAUNCH_DATE":"2020-01-29","PERIOD":"95.592"},{"SEMIMAJOR_AXIS":"6921.726","OBJECT_TYPE":"PAYLOAD","MEAN_MOTION_DOT":"0.00008934","TLE_LINE2":"2 45086  53.0049 289.1033 0001404  92.9258 267.1891 15.07582779105782","NORAD_CAT_ID":"45086","GP_ID":"192523579","RA_OF_ASC_NODE":"289.1033","BSTAR":"0.00059863000000","CENTER_NAME":"EARTH","REF_FRAME":"TEME","OBJECT_NAME":"STARLINK-1181","MEAN_MOTION":"15.07582779","PERIAPSIS":"542.619","INCLINATION":"53.0049","RCS_SIZE":"LARGE","MEAN_MOTION_DDOT":"0.0000000000000","SITE":"AFETR","APOAPSIS":"544.563","MEAN_ANOMALY":"267.1891","COUNTRY_CODE":"US","TIME_SYSTEM":"UTC","FILE":"3251846","TLE_LINE1":"1 45086U 20006AU  21360.95045556  .00008934  00000-0  59863-3 0  9990","CLASSIFICATION_TYPE":"U","MEAN_ELEMENT_THEORY":"SGP4","EPOCH":"2021-12-26T22:48:39.360384","EPHEMERIS_TYPE":"0","ELEMENT_SET_NO":"999","REV_AT_EPOCH":"10578","DECAY_DATE":null,"ARG_OF_PERICENTER":"92.9258","OBJECT_ID":"2020-006AU","ECCENTRICITY":"0.00014040","LAUNCH_DATE":"2020-01-29","PERIOD":"95.517"},{"TLE_LINE1":"1 45087U 20006AV  21360.80315434 -.00001662  00000-0 -92722-4 0  9995","FILE":"3251846","MEAN_ELEMENT_THEORY":"SGP4","CLASSIFICATION_TYPE":"U","TIME_SYSTEM":"UTC","COUNTRY_CODE":"US","REV_AT_EPOCH":"10583","ELEMENT_SET_NO":"999","EPHEMERIS_TYPE":"0","EPOCH":"2021-12-26T19:16:32.534976","MEAN_MOTION_DDOT":"0.0000000000000","RCS_SIZE":"LARGE","INCLINATION":"53.0545","MEAN_ANOMALY":"305.0486","APOAPSIS":"548.797","SITE":"AFETR","LAUNCH_DATE":"2020-01-29","PERIOD":"95.593","ARG_OF_PERICENTER":"55.0712","DECAY_DATE":null,"ECCENTRICITY":"0.00022340","OBJECT_ID":"2020-006AV","NORAD_CAT_ID":"45087","RA_OF_ASC_NODE":"292.4967","GP_ID":"192523327","SEMIMAJOR_AXIS":"6925.385","TLE_LINE2":"2 45087  53.0545 292.4967 0002234  55.0712 305.0486 15.06388261105831","MEAN_MOTION_DOT":"-0.00001662","OBJECT_TYPE":"PAYLOAD","PERIAPSIS":"545.702","MEAN_MOTION":"15.06388261","OBJECT_NAME":"STARLINK-1185","BSTAR":"-0.00009272200000","CENTER_NAME":"EARTH","REF_FRAME":"TEME"},{"OBJECT_ID":"2020-006AW","ECCENTRICITY":"0.00017620","ARG_OF_PERICENTER":"56.2539","DECAY_DATE":null,"PERIOD":"95.592","LAUNCH_DATE":"2020-01-29","APOAPSIS":"548.436","SITE":"AFETR","MEAN_ANOMALY":"303.8617","MEAN_MOTION_DDOT":"0.0000000000000","RCS_SIZE":"LARGE","INCLINATION":"53.0546","ELEMENT_SET_NO":"999","EPOCH":"2021-12-26T22:59:27.782880","EPHEMERIS_TYPE":"0","REV_AT_EPOCH":"10585","COUNTRY_CODE":"US","FILE":"3251846","TLE_LINE1":"1 45088U 20006AW  21360.95796045  .00000717  00000-0  67044-4 0  9990","CLASSIFICATION_TYPE":"U","MEAN_ELEMENT_THEORY":"SGP4","TIME_SYSTEM":"UTC","REF_FRAME":"TEME","BSTAR":"0.00006704400000","CENTER_NAME":"EARTH","MEAN_MOTION":"15.06399441","OBJECT_NAME":"STARLINK-1183","PERIAPSIS":"545.995","MEAN_MOTION_DOT":"0.00000717","OBJECT_TYPE":"PAYLOAD","TLE_LINE2":"2 45088  53.0546 291.8193 0001762  56.2539 303.8617 15.06399441105858","SEMIMAJOR_AXIS":"6925.350","GP_ID":"192522077","RA_OF_ASC_NODE":"291.8193","NORAD_CAT_ID":"45088"},{"ECCENTRICITY":"0.00016190","OBJECT_ID":"2020-006AX","DECAY_DATE":null,"ARG_OF_PERICENTER":"65.2416","PERIOD":"95.593","LAUNCH_DATE":"2020-01-29","SITE":"AFETR","APOAPSIS":"548.356","MEAN_ANOMALY":"294.8742","RCS_SIZE":"LARGE","INCLINATION":"53.0551","MEAN_MOTION_DDOT":"0.0000000000000","EPOCH":"2021-12-26T22:58:05.631168","EPHEMERIS_TYPE":"0","ELEMENT_SET_NO":"999","REV_AT_EPOCH":"10586","COUNTRY_CODE":"US","TIME_SYSTEM":"UTC","TLE_LINE1":"1 45089U 20006AX  21360.95700962  .00002123  00000-0  16140-3 0  9997","MEAN_ELEMENT_THEORY":"SGP4","FILE":"3251846","CLASSIFICATION_TYPE":"U","REF_FRAME":"TEME","BSTAR":"0.00016140000000","CENTER_NAME":"EARTH","OBJECT_NAME":"STARLINK-1136","MEAN_MOTION":"15.06393082","PERIAPSIS":"546.114","OBJECT_TYPE":"PAYLOAD","MEAN_MOTION_DOT":"0.00002123","TLE_LINE2":"2 45089  53.0551 291.7721 0001619  65.2416 294.8742 15.06393082105860","SEMIMAJOR_AXIS":"6925.370","GP_ID":"192522828","RA_OF_ASC_NODE":"291.7721","NORAD_CAT_ID":"45089"}];
